ONEWEB-0560             
1 55145U 23004F   24276.05378945  .00000101  00000+0  22218-3 0  9990
2 55145  87.9050  99.5143 0002071  92.6121 267.5248 13.18685735 87582
ONEWEB-0565             
1 55146U 23004G   24276.42684989  .00000035  00000+0  57135-4 0  9993
2 55146  87.9048  99.5124 0002173  76.0877 284.0497 13.18685876 87627
ONEWEB-0567             
1 55147U 23004H   24276.79991812  .00000159  00000+0  36942-3 0  9999
2 55147  87.9048  99.3920 0002189  84.3190 275.8191 13.18687699 87676
ONEWEB-0569             
1 55148U 23004J   24276.71242158  .00000122  00000+0  29921-3 0  9993
2 55148  87.8859  84.0450 0002817  91.6291 268.5161 13.13470510 88467
ONEWEB-0570             
1 55149U 23004K   24276.78726330  .00000088  00000+0  18959-3 0  9990
2 55149  87.9051  99.3935 0001732  61.4764 298.6542 13.18686109 87661
ONEWEB-0571             
1 55150U 23004L   24276.78094359  .00000179  00000+0  42018-3 0  9995
2 55150  87.9052  99.4016 0002619  73.7730 286.3690 13.18686293 87672
ONEWEB-0572             
1 55151U 23004M   24276.31118741  .00000174  00000+0  41439-3 0  9998
2 55151  87.9106 129.9477 0001817  73.0065 287.1265 13.17647852 85454
ONEWEB-0573             
1 55152U 23004N   24276.47111318  .00000200  00000+0  47496-3 0  9998
2 55152  87.9049  99.4793 0002415  68.5178 291.6212 13.18685688 87625
